0 GALAXY 18
1 32951U 08024A   13282.50667595  .00000011  00000-0  10000-3 0  9146
2 32951 000.0067 255.7796 0002551 288.6496 253.2508 01.00269448 19753
0 GALAXY 18
1 32951U 08024A   13282.80401291  .00000000  00000-0  10000-3 0  9168
2 32951 000.0187 152.7231 0003410 055.5451 336.8140 01.00272004 19733
0 GALAXY 18
1 32951U 08024A   13282.80404087  .00000000  00000-0  10000-3 0  9153
2 32951 000.0187 152.7188 0003264 055.5452 336.8164 01.00271793 19732
0 GALAXY 18
1 32951U 08024A   13285.63738656  .00000002  00000-0  10000-3 0  9151
2 32951 000.0080 264.8391 0002753 277.9609 305.0312 01.00272608 19785
0 GALAXY 18
1 32951U 08024A   13286.47744009  .00000000  00000-0  10000-3 0  9162
2 32951 000.0103 227.4372 0002757 315.2930 248.3504 01.00272787 19793
0 GALAXY 18
1 32951U 08024A   13288.49507560 -.00000000  00000-0  10000-3 0  9177
2 32951 000.0069 228.2327 0002757 314.5910 256.6021 01.00273253 19811
0 GALAXY 18
1 32951U 08024A   13289.32150402  .00000000  00000-0  10000-3 0  9189
2 32951 000.0073 088.6190 0002833 097.9874 191.1889 01.00271189 19820
0 GALAXY 18
1 32951U 08024A   13292.60499296  .00000007  00000-0  10000-3 0  9188
2 32951 000.0167 225.0709 0002949 330.6724 287.3174 01.00273855 19856
0 GALAXY 18
1 32951U 08024A   13295.65010522  .00000012  00000-0  10000-3 0  9194
2 32951 000.0118 200.9847 0003308 004.6976 296.6067 01.00272570 19884
